CCSDS_OMM_VERS,COMMENT,CREATION_DATE,ORIGINATOR,OBJECT_NAME,OBJECT_ID,CENTER_NAME,REF_FRAME,TIME_SYSTEM,MEAN_ELEMENT_THEORY,EPOCH,MEAN_MOTION,ECCENTRICITY,INCLINATION,RA_OF_ASC_NODE,ARG_OF_PERICENTER,MEAN_ANOMALY,EPHEMERIS_TYPE,CLASSIFICATION_TYPE,NORAD_CAT_ID,ELEMENT_SET_NO,REV_AT_EPOCH,BSTAR,MEAN_MOTION_DOT,MEAN_MOTION_DDOT,SEMIMAJOR_AXIS,PERIOD,APOAPSIS,PERIAPSIS,OBJECT_TYPE,RCS_SIZE,COUNTRY_CODE,LAUNCH_DATE,SITE,DECAY_DATE,FILE,GP_ID,TLE_LINE0,TLE_LINE1,TLE_LINE2
"2.0","GENERATED VIA SPACE-TRACK.ORG API","2020-02-10T06:40:16","18 SPCS","IRIDIUM 136","2017-061H","EARTH","TEME","UTC","SGP4","2020-02-10T03:33:06.278112","14.34216683","0.00024580","86.3952","274.3014","89.3471","270.8006","0","U","42962","999","12244","0.00002403500000","0.00000087","0.0000000000000","7155.807","100.403","779.431","775.913","PAYLOAD","LARGE","US","2017-10-09","AFWTR","","2697861","148446047","0 IRIDIUM 136","1 42962U 17061H   20041.14798933  .00000087  00000-0  24035-4 0  9992","2 42962  86.3952 274.3014 0002458  89.3471 270.8006 14.34216683122444"
"2.0","GENERATED VIA SPACE-TRACK.ORG API","2020-02-09T22:40:17","18 SPCS","COSMOS 1818","1987-011A","EARTH","TEME","UTC","SGP4","2020-02-09T20:48:18.637632","14.31452918","0.00134260","65.0098","263.5264","259.2424","100.7149","0","U","17369","999","77713","0.00000753720000","-0.00000080","0.0000000000000","7165.015","100.597","796.500","777.260","PAYLOAD","LARGE","CIS","1987-02-01","TTMTR","","2697739","148404448","0 COSMOS 1818","1 17369U 87011A   20040.86688238 -.00000080  00000-0  75372-5 0  9996","2 17369  65.0098 263.5264 0013426 259.2424 100.7149 14.31452918777133"
"2.0","GENERATED VIA SPACE-TRACK.ORG API","2020-02-10T05:00:26","18 SPCS","IRIDIUM 136","2017-061H","EARTH","TEME","UTC","SGP4","2020-02-09T14:09:22.243392","14.34216623","0.00024540","86.3952","274.5347","89.7727","270.3750","0","U","42962","999","12236","0.00002541300000","0.00000091","0.0000000000000","7155.807","100.403","779.428","775.916","PAYLOAD","LARGE","US","2017-10-09","AFWTR","","2697829","148423899","0 IRIDIUM 136","1 42962U 17061H   20040.58984078 +.00000091 +00000-0 +25413-4 0  9992","2 42962 086.3952 274.5347 0002454 089.7727 270.3750 14.34216623122365"
"2.0","GENERATED VIA SPACE-TRACK.ORG API","2020-02-09T17:08:44","18 SPCS","COSMOS 1818","1987-011A","EARTH","TEME","UTC","SGP4","2020-02-09T02:21:39.903264","14.31452885","0.00134380","65.0098","265.6784","259.1941","100.7631","0","U","17369","999","77674","0.00001314100000","-0.00000065","0.0000000000000","7165.015","100.597","796.508","777.252","PAYLOAD","LARGE","CIS","1987-02-01","TTMTR","","2697702","148368729","0 COSMOS 1818","1 17369U 87011A   20040.09837851 -.00000065 +00000-0 +13141-4 0  9996","2 17369 065.0098 265.6784 0013438 259.1941 100.7631 14.31452885776744"
"2.0","GENERATED VIA SPACE-TRACK.ORG API","2020-02-09T01:25:52","18 SPCS","IRIDIUM 136","2017-061H","EARTH","TEME","UTC","SGP4","2020-02-08T21:24:42.198912","14.34216485","0.00024480","86.3954","274.8264","90.2077","269.9400","0","U","42962","999","12226","0.00002359100000","0.00000086","0.0000000000000","7155.808","100.403","779.425","775.921","PAYLOAD","LARGE","US","2017-10-09","AFWTR","","2697385","148355512","0 IRIDIUM 136","1 42962U 17061H   20039.89215508 +.00000086 +00000-0 +23591-4 0  9998","2 42962 086.3954 274.8264 0002448 090.2077 269.9400 14.34216485122267"
"2.0","GENERATED VIA SPACE-TRACK.ORG API","2020-02-09T06:30:16","18 SPCS","IRIDIUM 136","2017-061H","EARTH","TEME","UTC","SGP4","2020-02-08T21:24:42.198912","14.34216485","0.00024480","86.3954","274.8264","90.2077","269.9400","0","U","42962","999","12226","0.00002359100000","0.00000086","0.0000000000000","7155.808","100.403","779.425","775.921","PAYLOAD","LARGE","US","2017-10-09","AFWTR","","2697439","148358513","0 IRIDIUM 136","1 42962U 17061H   20039.89215508  .00000086  00000-0  23591-4 0  9998","2 42962  86.3954 274.8264 0002448  90.2077 269.9400 14.34216485122267"
"2.0","GENERATED VIA SPACE-TRACK.ORG API","2020-02-08T22:30:16","18 SPCS","COSMOS 1818","1987-011A","EARTH","TEME","UTC","SGP4","2020-02-08T19:39:14.905728","14.31452863","0.00134470","65.0099","266.4610","259.1595","100.7976","0","U","17369","999","77698","0.00001338500000","-0.00000065","0.0000000000000","7165.015","100.597","796.515","777.245","PAYLOAD","LARGE","CIS","1987-02-01","TTMTR","","2697287","148335540","0 COSMOS 1818","1 17369U 87011A   20039.81892252 -.00000065  00000-0  13385-4 0  9990","2 17369  65.0099 266.4610 0013447 259.1595 100.7976 14.31452863776981"
"2.0","GENERATED VIA SPACE-TRACK.ORG API","2020-02-08T21:39:57","18 SPCS","IRIDIUM 136","2017-061H","EARTH","TEME","UTC","SGP4","2020-02-08T04:40:02.143200","14.34216444","0.00024400","86.3954","275.1181","90.5219","269.6256","0","U","42962","999","12216","0.00002491400000","0.00000090","0.0000000000000","7155.808","100.403","779.419","775.927","PAYLOAD","LARGE","US","2017-10-09","AFWTR","","2697249","148313267","0 IRIDIUM 136","1 42962U 17061H   20039.19446925 +.00000090 +00000-0 +24914-4 0  9995","2 42962 086.3954 275.1181 0002440 090.5219 269.6256 14.34216444122162"
"2.0","GENERATED VIA SPACE-TRACK.ORG API","2020-02-08T21:39:57","18 SPCS","COSMOS 1818","1987-011A","EARTH","TEME","UTC","SGP4","2020-02-08T04:33:48.663648","14.31452857","0.00134570","65.0099","268.2218","259.1248","100.8323","0","U","17369","999","77661","0.00001905500000","-0.00000050","0.0000000000000","7165.015","100.597","796.522","777.238","PAYLOAD","LARGE","CIS","1987-02-01","TTMTR","","2697249","148299690","0 COSMOS 1818","1 17369U 87011A   20039.19014657 -.00000050 +00000-0 +19055-4 0  9990","2 17369 065.0099 268.2218 0013457 259.1248 100.8323 14.31452857776611"
"2.0","GENERATED VIA SPACE-TRACK.ORG API","2020-02-08T01:20:20","18 SPCS","COSMOS 1818","1987-011A","EARTH","TEME","UTC","SGP4","2020-02-07T20:10:47.414784","14.31452822","0.00134680","65.0100","269.2000","259.0688","100.8881","0","U","17369","999","77656","0.00001896000000","-0.00000050","0.0000000000000","7165.015","100.597","796.530","777.230","PAYLOAD","LARGE","CIS","1987-02-01","TTMTR","","2696928","148253534","0 COSMOS 1818","1 17369U 87011A   20038.84082656 -.00000050 +00000-0 +18960-4 0  9999","2 17369 065.0100 269.2000 0013468 259.0688 100.8881 14.31452822776568"
"2.0","GENERATED VIA SPACE-TRACK.ORG API","2020-02-07T22:40:17","18 SPCS","IRIDIUM 136","2017-061H","EARTH","TEME","UTC","SGP4","2020-02-07T16:56:46.107744","14.34216334","0.00024360","86.3955","275.3223","90.6269","269.5206","0","U","42962","999","12209","0.00002094000000","0.00000078","0.0000000000000","7155.808","100.403","779.417","775.930","PAYLOAD","LARGE","US","2017-10-09","AFWTR","","2696803","148245950","0 IRIDIUM 136","1 42962U 17061H   20038.70608921  .00000078  00000-0  20940-4 0  9998","2 42962  86.3955 275.3223 0002436  90.6269 269.5206 14.34216334122097"
"2.0","GENERATED VIA SPACE-TRACK.ORG API","2020-02-07T16:36:20","18 SPCS","IRIDIUM 136","2017-061H","EARTH","TEME","UTC","SGP4","2020-02-07T13:35:50.091072","14.34216383","0.00024260","86.3955","275.3806","90.4762","269.6712","0","U","42962","999","12207","0.00002472000000","0.00000089","0.0000000000000","7155.808","100.403","779.409","775.937","PAYLOAD","LARGE","US","2017-10-09","AFWTR","","2696715","148241978","0 IRIDIUM 136","1 42962U 17061H   20038.56655198 +.00000089 +00000-0 +24720-4 0  9992","2 42962 086.3955 275.3806 0002426 090.4762 269.6712 14.34216383122074"
"2.0","GENERATED VIA SPACE-TRACK.ORG API","2020-02-07T14:30:17","18 SPCS","COSMOS 1818","1987-011A","EARTH","TEME","UTC","SGP4","2020-02-07T08:26:33.664992","14.31452805","0.00134720","65.0100","270.5695","259.0475","100.9093","0","U","17369","999","77677","0.00002012100000","-0.00000047","0.0000000000000","7165.015","100.597","796.533","777.228","PAYLOAD","LARGE","CIS","1987-02-01","TTMTR","","2696589","148221577","0 COSMOS 1818","1 17369U 87011A   20038.35177853 -.00000047  00000-0  20121-4 0  9997","2 17369  65.0100 270.5695 0013472 259.0475 100.9093 14.31452805776772"
"2.0","GENERATED VIA SPACE-TRACK.ORG API","2020-02-07T05:25:45","18 SPCS","COSMOS 1818","1987-011A","EARTH","TEME","UTC","SGP4","2020-02-06T22:22:56.160480","14.31452783","0.00134830","65.0101","271.7433","258.9795","100.9772","0","U","17369","999","77643","0.00001895100000","-0.00000050","0.0000000000000","7165.015","100.597","796.541","777.220","PAYLOAD","LARGE","CIS","1987-02-01","TTMTR","","2696382","148181814","0 COSMOS 1818","1 17369U 87011A   20037.93259445 -.00000050 +00000-0 +18951-4 0  9990","2 17369 065.0101 271.7433 0013483 258.9795 100.9772 14.31452783776433"
"2.0","GENERATED VIA SPACE-TRACK.ORG API","2020-02-06T16:46:50","18 SPCS","IRIDIUM 136","2017-061H","EARTH","TEME","UTC","SGP4","2020-02-06T14:09:18.005472","14.34216333","0.00024250","86.3957","275.7890","90.7868","269.3605","0","U","42962","999","12193","0.00002772000000","0.00000097","0.0000000000000","7155.808","100.403","779.409","775.938","PAYLOAD","LARGE","US","2017-10-09","AFWTR","","2696031","148167625","0 IRIDIUM 136","1 42962U 17061H   20037.58979173 +.00000097 +00000-0 +27720-4 0  9997","2 42962 086.3957 275.7890 0002425 090.7868 269.3605 14.34216333121939"
"2.0","GENERATED VIA SPACE-TRACK.ORG API","2020-02-06T20:30:17","18 SPCS","IRIDIUM 136","2017-061H","EARTH","TEME","UTC","SGP4","2020-02-06T14:09:18.005472","14.34216333","0.00024250","86.3957","275.7890","90.7868","269.3605","0","U","42962","999","12193","0.00002772000000","0.00000097","0.0000000000000","7155.808","100.403","779.409","775.938","PAYLOAD","LARGE","US","2017-10-09","AFWTR","","2696124","148171588","0 IRIDIUM 136","1 42962U 17061H   20037.58979173  .00000097  00000-0  27720-4 0  9997","2 42962  86.3957 275.7890 0002425  90.7868 269.3605 14.34216333121939"
